NORAD_CAT_ID,OBJECT_NAME,OBJECT_TYPE,EPOCH,MEAN_MOTION,ECCENTRICITY,INCLINATION,RA_OF_ASC_NODE,ARG_OF_PERICENTER,MEAN_ANOMALY,BSTAR,MEAN_MOTION_DOT,MEAN_MOTION_DDOT,TLE_LINE0,TLE_LINE1,TLE_LINE2,SEMIMAJOR_AXIS,PERIOD,APOGEE,PERIGEE,DECAYED
52272.0,STARLINK-3781,PAYLOAD,2022-12-29 06:12:00,15.08827623,0.0002433,53.2186,305.4484,31.5074,328.6064,-3.9314e-05,-9.14e-06,0.0,0 STARLINK-3781,1 52272U 22041M   22363.25833844 -.00000914  00000-0 -39314-4 0  9990,2 52272  53.2186 305.4484 0002433  31.5074 328.6064 15.08827623 39491,6917.918000000002,95.438,541.466,538.1,0.0
52272.0,STARLINK-3781,PAYLOAD,2022-12-30 06:02:48,15.08825353,0.0002931,53.2207,300.9857,34.5207,325.5975,-0.00010068,-1.89e-05,0.0,0 STARLINK-3781,1 52272U 22041M   22364.25194970 -.00001890  00000-0 -10068-3 0  9999,2 52272  53.2207 300.9857 0002931  34.5207 325.5975 15.08825353 38420,6917.925,95.438,541.818,537.763,0.0
52272.0,STARLINK-3781,PAYLOAD,2022-12-30 12:24:20,15.08834581,0.0002251999999999,53.219,299.7977,36.1442,323.9702,-3.6798e-06,-3.47e-06,0.0,0 STARLINK-3781,1 52272U 22041M   22364.51690067 -.00000347  00000-0 -36798-5 0  9992,2 52272  53.2190 299.7977 0002252  36.1442 323.9702 15.08834581 39686,6917.897,95.438,541.32,538.2040000000002,0.0
52272.0,STARLINK-3781,PAYLOAD,2022-12-31 04:18:10,15.08841184,0.000242,53.2204,296.8271,27.2878,332.8241,0.00038057,5.774e-05,0.0,0 STARLINK-3781,1 52272U 22041M   22365.17928930  .00005774  00000-0  38057-3 0  9993,2 52272  53.2204 296.8271 0002420  27.2878 332.8241 15.08841184 39783,6917.877,95.437,541.4159999999998,538.068,0.0
52272.0,STARLINK-3781,PAYLOAD,2022-12-31 12:15:06,15.08849657,0.0002512,53.2188,295.3375,31.8149,328.2995,0.00044127,6.743e-05,0.0,0 STARLINK-3781,1 52272U 22041M   22365.51048626  .00006743  00000-0  44127-3 0  9998,2 52272  53.2188 295.3375 0002512  31.8149 328.2995 15.08849657 38616,6917.851,95.437,541.4540000000002,537.9780000000002,0.0
52272.0,STARLINK-3781,PAYLOAD,2023-01-01 04:08:58,15.08843468,0.0002177999999999,53.2189,292.3644,32.4047,327.7078,4.106100000000001e-05,3.65e-06,0.0,0 STARLINK-3781,1 52272U 22041M   23001.17289410  .00000365  00000-0  41061-4 0  9995,2 52272  53.2189 292.3644 0002178  32.4047 327.7078 15.08843468 39931,6917.87,95.437,541.242,538.2280000000002,0.0
52272.0,STARLINK-3781,PAYLOAD,2023-01-01 12:05:55,15.08827305,0.0002253,53.2189,290.8772,33.1877,326.9256,-7.2848e-06,-4.04e-06,0.0,0 STARLINK-3781,1 52272U 22041M   23001.50410897 -.00000404  00000-0 -72848-5 0  9991,2 52272  53.2189 290.8772 0002253  33.1877 326.9256 15.08827305 39985,6917.919,95.438,541.3430000000002,538.226,0.0
52272.0,STARLINK-3781,PAYLOAD,2023-01-01 20:02:50,15.08844282,0.0002945,53.2195,289.3909,39.7232,320.3975,-0.00031482,-5.296e-05,0.0,0 STARLINK-3781,1 52272U 22041M   23001.83531081 -.00005296  00000-0 -31482-3 0  9997,2 52272  53.2195 289.3909 0002945  39.7232 320.3975 15.08844282 40039,6917.8669999999975,95.437,541.77,537.695,0.0
52272.0,STARLINK-3781,PAYLOAD,2023-01-02 11:56:40,15.08851706,0.0002555,53.2192,286.4175,35.2778,324.8383,-6.0395e-05,-1.25e-05,0.0,0 STARLINK-3781,1 52272U 22041M   23002.49769657 -.00001250  00000-0 -60395-4 0  9994,2 52272  53.2192 286.4175 0002555  35.2778 324.8383 15.08851706 40134,6917.845,95.437,541.477,537.942,0.0
52272.0,STARLINK-3781,PAYLOAD,2023-01-02 19:53:36,15.08841546,0.000239,53.2189,284.9301,33.9819,326.1326,1.0439e-05,-1.22e-06,0.0,0 STARLINK-3781,1 52272U 22041M   23002.82889925 -.00000122  00000-0  10439-4 0  9992,2 52272  53.2189 284.9301 0002390  33.9819 326.1326 15.08841546 40180,6917.876,95.437,541.394,538.087,0.0
52272.0,STARLINK-3781,PAYLOAD,2023-01-03 03:50:32,15.08839702,0.0002543,53.2184,283.4431,32.9657,327.1494,0.00010311,1.353e-05,0.0,0 STARLINK-3781,1 52272U 22041M   23003.16009877  .00001353  00000-0  10311-3 0  9994,2 52272  53.2184 283.4431 0002543  32.9657 327.1494 15.08839702 39010,6917.880999999999,95.438,541.506,537.987,0.0
52272.0,STARLINK-3781,PAYLOAD,2023-01-03 18:09:01,15.08829053,0.0002452,53.2185,280.7676,31.4173,328.6966,0.00015087,2.113e-05,0.0,0 STARLINK-3781,1 52272U 22041M   23003.75626640  .00002113  00000-0  15087-3 0  9992,2 52272  53.2185 280.7676 0002452  31.4173 328.6966 15.08829053 40322,6917.9140000000025,95.438,541.475,538.0830000000002,0.0
52272.0,STARLINK-3781,PAYLOAD,2023-01-04 00:30:40,15.08743549,0.0003347,53.2183,279.5783,8.3851,351.7196,-0.00070104,-0.0001139999999999,0.0,0 STARLINK-3781,1 52272U 22041M   23004.02130142 -.00011400  00000-0 -70104-3 0  9992,2 52272  53.2183 279.5783 0003347   8.3851 351.7196 15.08743549 40366,6918.175,95.444,542.356,537.725,0.0
52272.0,STARLINK-3781,PAYLOAD,2023-01-04 11:38:15,15.08849801,0.000251,53.2173,277.4972,31.3837,328.7305,0.00014344,1.996e-05,0.0,0 STARLINK-3781,1 52272U 22041M   23004.48489696  .00001996  00000-0  14344-3 0  9994,2 52272  53.2173 277.4972 0002510  31.3837 328.7305 15.08849801 40435,6917.85,95.437,541.452,537.979,0.0
52272.0,STARLINK-3781,PAYLOAD,2023-01-05 03:32:05,15.08857198,0.0002494,53.2179,274.5224,29.7994,330.314,0.00018184,2.608e-05,0.0,0 STARLINK-3781,1 52272U 22041M   23005.14728784  .00002608  00000-0  18184-3 0  9999,2 52272  53.2179 274.5224 0002494  29.7994 330.3140 15.08857198 39314,6917.828,95.436,541.418,537.9680000000002,0.0
52272.0,STARLINK-3781,PAYLOAD,2023-01-05 17:50:33,15.08856317,0.0002463999999999,53.2183,271.8465,35.7124,324.4033,0.00028492,4.251e-05,0.0,0 STARLINK-3781,1 52272U 22041M   23005.74343918  .00004251  00000-0  28492-3 0  9996,2 52272  53.2183 271.8465 0002464  35.7124 324.4033 15.08856317 39402,6917.831,95.437,541.4,537.991,0.0
52272.0,STARLINK-3781,PAYLOAD,2023-01-06 17:41:23,15.08825996,0.0002606,53.2179,267.386,38.9543,321.1637,-0.00017051,-3e-05,0.0,0 STARLINK-3781,1 52272U 22041M   23006.73707333 -.00003000  00000-0 -17051-3 0  9993,2 52272  53.2179 267.3860 0002606  38.9543 321.1637 15.08825996 40779,6917.923000000002,95.438,541.591,537.985,0.0
52272.0,STARLINK-3781,PAYLOAD,2023-01-07 00:02:55,15.08828337,0.0002488,53.2175,266.1959,33.2252,326.8896,-0.00012868,-2.335e-05,0.0,0 STARLINK-3781,1 52272U 22041M   23007.00203155 -.00002335  00000-0 -12868-3 0  9998,2 52272  53.2175 266.1959 0002488  33.2252 326.8896 15.08828337 39593,6917.916,95.438,541.502,538.06,0.0
52272.0,STARLINK-3781,PAYLOAD,2023-01-07 09:35:13,15.088416699999998,0.0002521,53.2178,264.4128,36.3057,323.8106,-7.843e-05,-1.537e-05,0.0,0 STARLINK-3781,1 52272U 22041M   23007.39946320 -.00001537  00000-0 -78430-4 0  9999,2 52272  53.2178 264.4128 0002521  36.3057 323.8106 15.08841670 40879,6917.875,95.437,541.484,537.996,0.0
52272.0,STARLINK-3781,PAYLOAD,2023-01-07 19:07:32,15.08832818,0.0002641,53.2145,262.6281,36.9359,323.1815,4.0141e-05,3.500000000000001e-06,0.0,0 STARLINK-3781,1 52272U 22041M   23007.79690561  .00000350  00000-0  40141-4 0  9994,2 52272  53.2145 262.6281 0002641  36.9359 323.1815 15.08832818 39712,6917.901999999999,95.438,541.594,537.94,0.0
52272.0,STARLINK-3781,PAYLOAD,2023-01-08 09:26:00,15.08834641,0.0002469,53.2161,259.9524,32.3014,327.8129,0.00019511,2.818e-05,0.0,0 STARLINK-3781,1 52272U 22041M   23008.39306666  .00002818  00000-0  19511-3 0  9998,2 52272  53.2161 259.9524 0002469  32.3014 327.8129 15.08834641 39800,6917.897,95.438,541.47,538.054,0.0
52272.0,STARLINK-3781,PAYLOAD,2023-01-08 17:22:56,15.08833785,0.0002483,53.2159,258.4656,31.4147,328.6993,0.00021881,3.195e-05,0.0,0 STARLINK-3781,1 52272U 22041M   23008.72427012  .00003195  00000-0  21881-3 0  9996,2 52272  53.2159 258.4656 0002483  31.4147 328.6993 15.08833785 41078,6917.899,95.438,541.482,538.047,0.0
52272.0,STARLINK-3781,PAYLOAD,2023-01-09 10:52:11,15.08837722,0.0002491,53.216,255.1946,34.0389,326.0762,7.303899999999999e-05,8.74e-06,0.0,0 STARLINK-3781,1 52272U 22041M   23009.45291045  .00000874  00000-0  73039-4 0  9996,2 52272  53.2160 255.1946 0002491  34.0389 326.0762 15.08837722 39968,6917.887,95.438,541.476,538.029,0.0
52272.0,STARLINK-3781,PAYLOAD,2023-01-10 01:10:39,15.08845395,0.00025,53.216,252.5181,34.1357,325.9795,0.00015911,2.245e-05,0.0,0 STARLINK-3781,1 52272U 22041M   23010.04906654  .00002245  00000-0  15911-3 0  9990,2 52272  53.2160 252.5181 0002500  34.1357 325.9795 15.08845395 41273,6917.864000000001,95.437,541.4580000000002,537.999,0.0
52272.0,STARLINK-3781,PAYLOAD,2023-01-10 12:18:21,15.08839471,0.0002552,53.2167,250.4364,35.1437,324.9723,5.5345e-05,5.92e-06,0.0,0 STARLINK-3781,1 52272U 22041M   23010.51275200  .00000592  00000-0  55345-4 0  9997,2 52272  53.2167 250.4364 0002552  35.1437 324.9723 15.08839471 41343,6917.882,95.438,541.512,537.982,0.0
52272.0,STARLINK-3781,PAYLOAD,2023-01-10 15:29:08,15.0883955,0.0002559,53.2167,249.8417,35.3466,324.7696,5.4839e-05,5.84e-06,0.0,0 STARLINK-3781,1 52272U 22041M   23010.64523179  .00000584  00000-0  54839-4 0  9990,2 52272  53.2167 249.8417 0002559  35.3466 324.7696 15.08839550 40147,6917.882,95.438,541.5169999999998,537.976,0.0
52272.0,STARLINK-3781,PAYLOAD,2023-01-11 10:33:45,15.08839249,0.0002547,53.2153,246.2745,41.8395,318.2791,7.681699999999999e-05,9.34e-06,0.0,0 STARLINK-3781,1 52272U 22041M   23011.44011241  .00000934  00000-0  76817-4 0  9990,2 52272  53.2153 246.2745 0002547  41.8395 318.2791 15.08839249 40269,6917.883000000002,95.438,541.51,537.986,0.0
52272.0,STARLINK-3781,PAYLOAD,2023-01-12 18:21:29,15.08821266,0.0002539,53.2153,240.3269,39.8692,320.2486,0.00015058,2.108e-05,0.0,0 STARLINK-3781,1 52272U 22041M   23012.76492428  .00002108  00000-0  15058-3 0  9990,2 52272  53.2153 240.3269 0002539  39.8692 320.2486 15.08821266 41684,6917.938,95.439,541.559,538.0459999999998,0.0
52272.0,STARLINK-3781,PAYLOAD,2023-01-12 21:32:15,15.08838029,0.0002318,53.2154,239.7313,48.2727,311.8463,1.3557e-05,-7.3e-07,0.0,0 STARLINK-3781,1 52272U 22041M   23012.89739630 -.00000073  00000-0  13557-4 0  9996,2 52272  53.2154 239.7313 0002318  48.2727 311.8463 15.08838029 41704,6917.886,95.438,541.355,538.148,0.0
